[{"OBJECT_NAME":"ONEWEB-0642","OBJECT_ID":"2023-029L","EPOCH":"2026-03-09T16:51:30.002976","MEAN_MOTION":13.19727415,"ECCENTRICITY":0.00023588,"INCLINATION":87.9224,"RA_OF_ASC_NODE":324.8012,"ARG_OF_PERICENTER":96.8052,"MEAN_ANOMALY":263.3349,"EPHEMERIS_TYPE":0,"CLASSIFICATION_TYPE":"U","NORAD_CAT_ID":55806,"ELEMENT_SET_NO":999,"REV_AT_EPOCH":14578,"BSTAR":-3.5523133e-5,"MEAN_MOTION_DOT":-1.0e-8,"MEAN_MOTION_DDOT":0},{"OBJECT_NAME":"FENGYUN 1C DEB","OBJECT_ID":"1999-025EZT","EPOCH":"2026-03-09T13:00:39.279456","MEAN_MOTION":13.69262259,"ECCENTRICITY":0.02635874,"INCLINATION":98.7251,"RA_OF_ASC_NODE":183.9217,"ARG_OF_PERICENTER":69.7913,"MEAN_ANOMALY":350.124,"EPHEMERIS_TYPE":0,"CLASSIFICATION_TYPE":"U","NORAD_CAT_ID":46993,"ELEMENT_SET_NO":999,"REV_AT_EPOCH":61445,"BSTAR":0.00039758472,"MEAN_MOTION_DOT":4.04e-6,"MEAN_MOTION_DDOT":0}]
